INTELSAT 26 (IS-26)     
1 24732U 97007A   20108.91916421 -.00000004  00000-0  00000+0 0  9999
2 24732   8.9580  43.3377 0007768   7.2869 190.3840  1.00272303 84709
GALAXY 25 (G-25)        
1 24812U 97026A   20109.47877566  .00000143  00000-0  00000-0 0  9991
2 24812   1.7828  90.8724 0002655 297.9671  23.4322  1.00272887 83804
INTELSAT 5 (IS-5)       
1 24916U 97046A   20109.57331693  .00000082  00000-0  00000-0 0  9997
2 24916   5.5900  65.8813 0003290 343.0012 227.6356  1.00271497 83059
INTELSAT 805 (IS-805)   
1 25371U 98037A   20109.58276897  .00000082  00000-0  00000-0 0  9999
2 25371   2.3164  88.1917 0007776 100.7370 102.9109  0.99473894 79972
GALAXY 11 (G-11)        
1 26038U 99071A   20109.49162872 -.00000174  00000-0  00000-0 0  9999
2 26038   1.0640  97.1746 0000409 210.8608 342.9168  1.00272194 74510
INTELSAT 9 (IS-9)       
1 26451U 00043A   20109.43041516 -.00000295  00000-0  00000+0 0  9997
2 26451   5.5793  66.0897 0002573 320.7494 285.1051  1.00274466 72271
INTELSAT 12 (IS-12)     
1 26590U 00068A   20109.48505664  .00000002  00000-0  00000-0 0  9998
2 26590   2.7934  86.6915 0005162 331.8272  27.3748  1.00271025 29149
INTELSAT 1R (IS-1R)     
1 26608U 00072A   20109.52896910 -.00000149  00000-0  00000-0 0  9998
2 26608   2.5979  86.5020 0000225  15.2240  92.8964  1.00271668 18750
INTELSAT 10 (IS-10)     
1 26766U 01019A   20109.48174168  .00000114  00000-0  00000-0 0  9995
2 26766   3.7578  79.3529 0002215 326.8195  21.7891  1.00270640 23067
INTELSAT 901 (IS-901)   
1 26824U 01024A   20109.36847971 -.00000216  00000-0  00000-0 0  9996
2 26824   0.0625  55.2135 0001311  86.3146 170.5666  1.00272242   474
INTELSAT 902 (IS-902)   
1 26900U 01039A   20109.31035812 -.00000296  00000-0  00000-0 0  9993
2 26900   0.4766  97.1655 0008032 243.7120 286.5913  1.00300826 68140
DIRECTV 4S              
1 26985U 01052A   20109.47982249  .00000053  00000-0  00000-0 0  9993
2 26985   0.5639  95.2229 0005843 308.2742  14.4926  0.99263200 28726
INTELSAT 904 (IS-904)   
1 27380U 02007A   20109.39457182 -.00000226  00000-0  00000-0 0  9991
2 27380   1.3176  93.8375 0002689 300.8626 284.7889  1.00270522 29191
INTELSAT 903 (IS-903)   
1 27403U 02016A   20109.39413564 -.00000235  00000-0  00000-0 0  9993
2 27403   2.1471  89.1646 0002235 331.5082 256.6739  1.00275802 23100
DIRECTV 5 (TEMPO 1)     
1 27426U 02023A   20109.50145897 -.00000069  00000-0  00000-0 0  9995
2 27426   0.0187 223.0078 0003373 170.9510 243.5132  1.00271165 65767
INTELSAT 905 (IS-905)   
1 27438U 02027A   20109.39553141 -.00000197  00000-0  00000+0 0  9995
2 27438   1.1378  94.7620 0002664 294.3201 295.7848  1.00272033 65397
GALAXY 3C (G-3C)        
1 27445U 02030A   20109.56904769 -.00000164  00000-0  00000-0 0  9997
2 27445   0.0150 285.8149 0001671  43.1346 347.9727  1.00271496 23939
INTELSAT 906 (IS-906)   
1 27513U 02041A   20109.48505664  .00000002  00000-0  00000-0 0  9997
2 27513   0.1422 102.6386 0002422 303.2233  39.9426  1.00270696 64454
INTELSAT 907 (IS-907)   
1 27683U 03007A   20109.56612132 -.00000215  00000-0  00000-0 0  9993
2 27683   0.0891  87.3778 0003148 328.5035 327.5327  1.00271293 62864
GALAXY 12 (G-12)        
1 27715U 03013B   20109.57996073  .00000047  00000-0  00000-0 0  9998
2 27715   1.3542  93.0389 0002006 310.6537 243.2322  1.00272370 29577
GALAXY 23 (G-23)        
1 27854U 03034A   20109.58464308  .00000000  00000-0  00000-0 0  9996
2 27854   0.0162 237.4864 0003027 155.3309 263.8157  1.00271840 61179
GALAXY 13 (HORIZONS 1)  
1 27954U 03044A   20109.58092076  .00000036  00000-0  00000-0 0  9996
2 27954   0.0295 112.6238 0002635  76.6273 100.0033  1.00269393 24012
DIRECTV 7S              
1 28238U 04016A   20109.58619164 -.00000011  00000-0  00000-0 0  9999
2 28238   0.0174 229.8881 0003022 169.7186 259.5059  1.00270465 58496
INTELSAT 10-02          
1 28358U 04022A   20109.37271650 -.00000024  00000-0  00000-0 0  9994
2 28358   0.0195 229.5630 0002802 177.9023 292.6649  1.00272144 58081
XM-3 (RHYTHM)           
1 28626U 05008A   20109.50281198 -.00000218  00000-0  00000-0 0  9995
2 28626   0.0383  71.3909 0000270  69.1679 162.4165  1.00271973 20069
SPACEWAY 1              
1 28644U 05015A   20109.49299510 -.00000076  00000-0  00000-0 0  9990
2 28644   0.9721  94.0563 0002916 353.2640  41.4261  0.98489540 24015
DIRECTV 8               
1 28659U 05019A   20109.52396384 -.00000129  00000-0  00000-0 0  9990
2 28659   0.0321 104.8735 0002849 280.7456 269.3445  1.00272750 54579
GALAXY 28 (G-28)        
1 28702U 05022A   20109.49448480 -.00000198  00000-0  00000-0 0  9990
2 28702   0.0097 244.2355 0002371 139.4080 272.4301  1.00271136 29540
GALAXY 14 (G-14)        
1 28790U 05030A   20109.58288498  .00000023  00000-0  00000-0 0  9993
2 28790   0.0411  69.1367 0002453 329.4006 253.4528  1.00274990 53744
GALAXY 15 (G-15)        
1 28884U 05041A   20109.57719354  .00000066  00000-0  00000-0 0  9995
2 28884   0.0376 107.4526 0001841 279.6284 254.8368  1.00271783 53187
SPACEWAY 2              
1 28903U 05046B   20109.57275216  .00000091  00000-0  00000-0 0  9994
2 28903   0.0767  80.2301 0001193 347.8603 206.3068  1.00268899 28775
GALAXY 16 (G-16)        
1 29236U 06023A   20109.52431279 -.00000140  00000-0  00000-0 0  9994
2 29236   0.0186 231.2114 0002677 164.5088 261.1170  1.00273525 50656
DIRECTV 9S              
1 29494U 06043A   20109.52387661 -.00000126  00000-0  00000-0 0  9991
2 29494   0.0172 227.1715 0003139 174.3785 252.9140  1.00271689 28834
XM-4 (BLUES)            
1 29520U 06049A   20109.58897649 -.00000035  00000-0  00000-0 0  9994
2 29520   0.0276  82.8863 0000038 213.6505   7.3569  1.00272963 28902
GALAXY 17 (G-17)        
1 31307U 07016B   20109.49309414 -.00000187  00000-0  00000-0 0  9991
2 31307   0.0090 278.6441 0003449 124.9640 249.9695  1.00272675 47389
DIRECTV 10              
1 31862U 07032A   20109.59787130 -.00000116  00000-0  00000-0 0  9993
2 31862   0.0404  68.8236 0000117  89.8852 160.9450  1.00272540 23047
SPACEWAY 3              
1 32018U 07036A   20109.56904769 -.00000164  00000-0  00000-0 0  9990
2 32018   0.0386  70.8865 0000126  10.4569 235.6895  1.00271912 24008
INTELSAT 11 (IS-11)     
1 32253U 07044B   20109.46368384 -.00000281  00000-0  00000-0 0  9996
2 32253   0.0202 126.2089 0001858 297.7859 266.9776  1.00272983 46036
HORIZONS 2              
1 32388U 07063B   20109.48915674 -.00000195  00000-0  00000-0 0  9992
2 32388   0.0185 231.7674 0002864 159.8941  76.3416  1.00269448 45298
DIRECTV 11              
1 32729U 08013A   20109.52422556 -.00000139  00000-0  00000-0 0  9992
2 32729   0.0328  77.2343 0000147  32.1760 187.2156  1.00272586 23023
GALAXY 18 (G-18)        
1 32951U 08024A   20109.58373389  .00000013  00000-0  00000-0 0  9996
2 32951   0.0199 223.8896 0003008 178.1892 252.1947  1.00270647 23323
INTELSAT 25 (IS-25)     
1 33153U 08034A   20109.39413564 -.00000237  00000-0  00000-0 0  9990
2 33153   0.0113 222.9822 0001882 115.3633 338.9996  1.00272651 43165
GALAXY 19 (G-19)        
1 33376U 08045A   20109.53159554 -.00000152  00000-0  00000-0 0  9997
2 33376   0.0194 128.4610 0002956 262.5566 270.4473  1.00273174 42372
SIRIUS FM-5             
1 35493U 09034A   20109.49588448 -.00000213  00000-0  00000-0 0  9999
2 35493   0.0182 282.6787 0001020 110.9347 265.8177  1.00273333 24133
INTELSAT 14 (IS-14)     
1 36097U 09064A   20109.46324766 -.00000287  00000-0  00000-0 0  9992
2 36097   0.0177 235.2952 0002461 161.7462 291.7624  1.00272956 38138
INTELSAT 15 (IS-15)     
1 36106U 09067A   20109.56630926 -.00000199  00000-0  00000-0 0  9997
2 36106   0.0157 171.6882 0002274 230.9909  93.4756  1.00273166 18741
DIRECTV 12              
1 36131U 09075A   20109.51471014 -.00000116  00000-0  00000-0 0  9999
2 36131   0.0119 208.7068 0000113  26.3355  54.5505  1.00269637 24023
INTELSAT 16 (IS-16)     
1 36397U 10006A   20109.45705391 -.00000258  00000-0  00000-0 0  9997
2 36397   0.0217 118.0921 0002065 290.4532 246.8178  1.00273350 37298
XM-5                    
1 37185U 10053A   20109.44583992 -.00000218  00000-0  00000+0 0  9990
2 37185   0.0199 224.3106 0002123 186.6144 231.3775  1.00269657 34877
INTELSAT 17 (IS-17)     
1 37238U 10065B   20109.48540558 -.00000015  00000-0  00000-0 0  9993
2 37238   0.0238 243.1075 0002722 142.5044  62.1819  1.00270152 30865
INTELSAT NEW DAWN       
1 37392U 11016A   20109.47877566  .00000142  00000-0  00000-0 0  9992
2 37392   0.0144 196.7361 0000545 176.1956  39.2678  1.00273123 30734
INTELSAT 18 (IS-18)     
1 37834U 11056A   20109.54440028  .00000039  00000-0  00000-0 0  9999
2 37834   0.0180 216.2584 0003629 202.9810 163.8472  1.00270952 31377
INTELSAT 22 (IS-22)     
1 38098U 12011A   20109.48662689 -.00000072  00000-0  00000-0 0  9994
2 38098   0.0162 148.4018 0002514 246.8017  59.1372  1.00271872 29258
INTELSAT 19 (IS-19)     
1 38356U 12030A   20109.53422340 -.00000070  00000-0  00000-0 0  9994
2 38356   0.0242 114.7846 0003058 289.8677 160.7674  1.00272389 27898
INTELSAT 20 (IS-20)     
1 38740U 12043A   20109.48592899 -.00000038  00000-0  00000-0 0  9990
2 38740   0.0216 140.0679 0001747  41.4254 268.9859  1.00271110 28177
INTELSAT 21 (IS-21)     
1 38749U 12045A   20109.46063059 -.00000298  00000-0  00000-0 0  9998
2 38749   0.0042 120.4968 0002057 278.2555 276.0989  1.00272947 27975
INTELSAT 23 (IS-23)     
1 38867U 12057A   20109.45907927 -.00000298  00000-0  00000+0 0  9991
2 38867   0.0206 130.3158 0001647 259.0822 289.9160  1.00272251 27531
SIRIUS FM-6             
1 39360U 13058A   20109.58806664 -.00000030  00000-0  00000-0 0  9997
2 39360   0.0200 270.0082 0001032 333.7138  58.9786  1.00272968 23595
INTELSAT 30 (IS-30)     
1 40271U 14062A   20109.56904769 -.00000163  00000-0  00000-0 0  9996
2 40271   0.0193 249.6008 0001618 258.9831 168.3447  1.00269400 20063
INTELSAT 34 (IS-34)     
1 40874U 15039A   20109.46115400 -.00000298  00000-0  00000-0 0  9994
2 40874   0.0186 223.0928 0000533  19.7649  74.6920  1.00269807 17103
INTELSAT 31 (IS-31)     
1 41581U 16035A   20109.56904769 -.00000163  00000-0  00000-0 0  9993
2 41581   0.0156 238.4748 0002606 325.7704 112.6812  1.00271146 14076
INTELSAT 36 (IS-36)     
1 41747U 16053A   20109.48592899 -.00000037  00000-0  00000-0 0  9995
2 41747   0.0110 247.5429 0000774 116.5507  86.3832  1.00269264 13399
INTELSAT 33E (IS-33E)   
1 41748U 16053B   20109.48418428  .00000035  00000-0  00000-0 0  9998
2 41748   0.0422  26.0741 0002072  36.2220  19.0451  1.00272635 13673
INTELSAT 32E (IS-32E)   
1 41945U 17007B   20109.39186750 -.00000282  00000-0  00000-0 0  9992
2 41945   0.0178 213.5060 0000193  49.9644  41.3870  1.00268865 11660
INTELSAT 35E (IS-35E)   
1 42818U 17041A   20109.46534133 -.00000251  00000-0  00000-0 0  9996
2 42818   0.0205 196.5498 0002247 204.1965 299.3103  1.00272903 10301
INTELSAT 37E (IS-37E)   
1 42950U 17059A   20109.39683997 -.00000154  00000-0  00000+0 0  9998
2 42950   0.0206 220.0249 0002443 176.3326 295.4778  1.00269826  9476
AZERSPACE 2 (IS-38)     
1 43632U 18074A   20109.48121826  .00000123  00000-0  00000-0 0  9998
2 43632   0.0194 212.8797 0001277 180.8531  31.6830  1.00270334  5931
HORIZONS 3E             
1 43633U 18074B   20109.53685810 -.00000044  00000-0  00000-0 0  9996
2 43633   0.0255  56.8666 0000419 243.0576 269.4464  1.00273067  5782
INTELSAT 39 (IS-39)     
1 44476U 19049B   20109.48462046  .00000020  00000-0  00000-0 0  9996
2 44476   0.0206 245.5841 0000123 242.6337 315.2328  1.00271856  2610
